{
    "links": {
        "self": "http://www.neowsapp.com/rest/v1/neo/3312420?api_key=iIulBulltgU6a56xZRHN4H3l9WmuAYTsLGpBGhQ2"
    },
    "id": "3312420",
    "neo_reference_id": "3312420",
    "name": "(2006 AW44)",
    "designation": "2006 AW44",
    "nasa_jpl_url": "http://ssd.jpl.nasa.gov/sbdb.cgi?sstr=3312420",
    "absolute_magnitude_h": 23.4,
    "estimated_diameter": {
        "kilometers": {
            "estimated_diameter_min": 0.0555334912,
            "estimated_diameter_max": 0.1241766613
        },
        "meters": {
            "estimated_diameter_min": 55.5334911581,
            "estimated_diameter_max": 124.1766612574
        },
        "miles": {
            "estimated_diameter_min": 0.0345069009,
            "estimated_diameter_max": 0.0771597762
        },
        "feet": {
            "estimated_diameter_min": 182.1964991311,
            "estimated_diameter_max": 407.4037573197
        }
    },
    "is_potentially_hazardous_asteroid": false,
    "close_approach_data": [
        {
            "close_approach_date": "1926-01-09",
            "close_approach_date_full": "1926-Jan-09 04:00",
            "epoch_date_close_approach": -1387828800000,
            "relative_velocity": {
                "kilometers_per_second": "6.0229880901",
                "kilometers_per_hour": "21682.7571245319",
                "miles_per_hour": "13472.8220588515"
            },
            "miss_distance": {
                "astronomical": "0.234260657",
                "lunar": "91.127395573",
                "kilometers": "35044895.31200059",
                "miles": "21775888.185524542"
            },
            "orbiting_body": "Earth"
        },
        {
            "close_approach_date": "2002-02-07",
            "close_approach_date_full": "2002-Feb-07 10:07",
            "epoch_date_close_approach": 1013076420000,
            "relative_velocity": {
                "kilometers_per_second": "15.1145506815",
                "kilometers_per_hour": "54412.3824535238",
                "miles_per_hour": "33809.7384195243"
            },
            "miss_distance": {
                "astronomical": "0.41049979",
                "lunar": "159.68441831",
                "kilometers": "61409894.2194473",
                "miles": "38158338.84228074"
            },
            "orbiting_body": "Earth"
        },
        {
            "close_approach_date": "2006-01-08",
            "close_approach_date_full": "2006-Jan-08 12:46",
            "epoch_date_close_approach": 1136724360000,
            "relative_velocity": {
                "kilometers_per_second": "7.115201126",
                "kilometers_per_hour": "25614.7240536674",
                "miles_per_hour": "15915.9933987913"
            },
            "miss_distance": {
                "astronomical": "0.1209679687",
                "lunar": "47.0565398243",
                "kilometers": "18096550.455746669",
                "miles": "11244675.0306912722"
            },
            "orbiting_body": "Earth"
        },
        {
            "close_approach_date": "2008-01-19",
            "close_approach_date_full": "2008-Jan-19 18:48",
            "epoch_date_close_approach": 1200768480000,
            "relative_velocity": {
                "kilometers_per_second": "4.7431446389",
                "kilometers_per_hour": "17075.3206999819",
                "miles_per_hour": "10609.9402427193"
            },
            "miss_distance": {
                "astronomical": "1.9487894229",
                "lunar": "758.0790855081",
                "kilometers": "291534746.744369223",
                "miles": "181151291.5299443574"
            },
            "orbiting_body": "Juptr"
        },
        {
            "close_approach_date": "2009-12-07",
            "close_approach_date_full": "2009-Dec-07 05:29",
            "epoch_date_close_approach": 1260163740000,
            "relative_velocity": {
                "kilometers_per_second": "16.764207298",
                "kilometers_per_hour": "60351.1462727507",
                "miles_per_hour": "37499.8553048656"
            },
            "miss_distance": {
                "astronomical": "0.435628803",
                "lunar": "169.459604367",
                "kilometers": "65169141.03944961",
                "miles": "40494226.499680218"
            },
            "orbiting_body": "Earth"
        }
    ],
    "orbital_data": {
        "orbit_id": "11",
        "orbit_determination_date": "2017-04-06 09:09:24",
        "first_observation_date": "2006-01-10",
        "last_observation_date": "2006-02-24",
        "data_arc_in_days": 45,
        "observations_used": 45,
        "orbit_uncertainty": "6",
        "minimum_orbit_intersection": ".0902513",
        "jupiter_tisserand_invariant": "3.223",
        "epoch_osculation": "2459000.5",
        "eccentricity": ".5670797652053751",
        "semi_major_axis": "2.479638531570121",
        "inclination": "8.701389256590874",
        "ascending_node_longitude": "108.5456041543982",
        "orbital_period": "1426.201836488194",
        "perihelion_distance": "1.073485695293136",
        "perihelion_argument": "1.076462001592204",
        "aphelion_distance": "3.885791367847106",
        "perihelion_time": "2459472.920869100790",
        "mean_anomaly": "240.7521428418155",
        "mean_motion": ".2524186905315208",
        "equinox": "J2000",
        "orbit_class": {
            "orbit_class_type": "AMO",
            "orbit_class_description": "Near-Earth asteroid orbits similar to that of 1221 Amor",
            "orbit_class_range": "1.017 AU < q (perihelion) < 1.3 AU"
        }
    },
    "is_sentry_object": false
}